STARLINK-31142          
1 58779U 24011Q   26068.14173731  .00000346  00000+0  23811-4 0  9994
2 58779  53.1618  16.4087 0001093 112.8196 247.2921 15.30196835120189
TOMORROW-S2             
1 60485U 24149T   26068.75188364  .00008133  00000+0  27683-3 0  9990
2 60485  97.3857 150.0385 0001648 234.3331 125.7757 15.30674935 86869
