[{"OBJECT_NAME":"STARLINK-31142","OBJECT_ID":"2024-011Q","EPOCH":"2026-03-09T03:24:06.103584","MEAN_MOTION":15.30196835,"ECCENTRICITY":0.00010931,"INCLINATION":53.1618,"RA_OF_ASC_NODE":16.4087,"ARG_OF_PERICENTER":112.8196,"MEAN_ANOMALY":247.2921,"EPHEMERIS_TYPE":0,"CLASSIFICATION_TYPE":"U","NORAD_CAT_ID":58779,"ELEMENT_SET_NO":999,"REV_AT_EPOCH":12018,"BSTAR":2.3810538e-5,"MEAN_MOTION_DOT":3.46e-6,"MEAN_MOTION_DDOT":0},{"OBJECT_NAME":"TOMORROW-S2","OBJECT_ID":"2024-149T","EPOCH":"2026-03-09T18:02:42.746496","MEAN_MOTION":15.30674935,"ECCENTRICITY":0.0001648,"INCLINATION":97.3857,"RA_OF_ASC_NODE":150.0385,"ARG_OF_PERICENTER":234.3331,"MEAN_ANOMALY":125.7757,"EPHEMERIS_TYPE":0,"CLASSIFICATION_TYPE":"U","NORAD_CAT_ID":60485,"ELEMENT_SET_NO":999,"REV_AT_EPOCH":8686,"BSTAR":0.00027683033,"MEAN_MOTION_DOT":8.133e-5,"MEAN_MOTION_DDOT":0}]
